{
  "norad_id": 58720,
  "name": "STARLINK-31027",
  "history": [
    {
      "epoch": "2026-03-28T20:00:01.999872",
      "apogee_km": 416.59796164585805,
      "perigee_km": 398.6962488820791,
      "latitude_deg": 52.52004276108726,
      "longitude_deg": 132.0022220800165,
      "semi_major_axis_km": 6785.784105263969,
      "eccentricity": 0.00131906,
      "inclination_deg": 53.1502,
      "raan_deg": 134.8682,
      "arg_perigee_deg": 16.6034,
      "mean_anomaly_deg": 295.57,
      "mean_motion_rev_day": 15.53111748
    },
    {
      "epoch": "2026-03-29T04:00:01.999584",
      "apogee_km": 416.06619212720943,
      "perigee_km": 398.34965652978826,
      "latitude_deg": 23.91941091532418,
      "longitude_deg": 164.00222175987437,
      "semi_major_axis_km": 6785.344924328499,
      "eccentricity": 0.0013055,
      "inclination_deg": 53.1502,
      "raan_deg": 133.2646,
      "arg_perigee_deg": 18.3861,
      "mean_anomaly_deg": 358.6523,
      "mean_motion_rev_day": 15.53262538
    }
  ]
}